KUIPER-00133            
1 65764U 25217C   25350.23925152  .00002173  00000+0  31394-3 0  9994
2 65764  51.9035  62.1105 0011763  45.1249 315.0666 14.79948952 12380
KUIPER-00139            
1 65765U 25217D   25350.33978433  .00006322  00000+0  50076-3 0  9994
2 65765  51.8862  55.4575 0008386  34.3271 325.8241 15.01698843 12482
KUIPER-00142            
1 65766U 25217E   25350.33337963 -.01021508  00000+0 -53507-1 0  9998
2 65766  51.8791  48.0131 0003748  68.0870 329.2337 15.18302951  5369
KUIPER-00145            
1 65767U 25217F   25350.33337963 -.00577371  00000+0 -37650-1 0  9993
2 65767  51.8976  49.3945 0005710  19.2390 344.3903 15.09889987  4587
KUIPER-00147            
1 65768U 25217G   25350.33337963 -.00027573  00000+0 -20619-2 0  9996
2 65768  51.9049  51.4025 0009937  39.3101  28.0505 15.02070794  5194
KUIPER-00148            
1 65769U 25217H   25350.32525784  .00012469  00000+0  71355-3 0  9996
2 65769  51.8751  50.9359 0009765  58.2957 301.8970 15.12958461 12548
KUIPER-00150            
1 65770U 25217J   25350.33337963 -.00028747  00000+0 -37617-2 0  9999
2 65770  51.9014  59.1139 0000690  84.8428  85.0592 14.79891124  5576
KUIPER-00151            
1 65771U 25217K   25350.33337963 -.00043737  00000+0 -38318-2 0  9995
2 65771  51.8904  52.3297 0003438  59.0772  38.1723 14.96277025  5014
